FIREFLY-1               
1 62701U 25009CW  26186.19228850  .00001762  00000+0  17605-3 0  9997
2 62701  97.7065 263.9498 0002232 276.6303  83.4662 14.92725562 80009
FIREFLY-2               
1 62704U 25009CZ  26186.17017305  .00002096  00000+0  20838-3 0  9992
2 62704  97.7021 263.7035 0007268  34.3772 325.7916 14.92721217 80009
FIREFLY-3               
1 62710U 25009DF  26186.14871433  .00001945  00000+0  19351-3 0  9996
2 62710  97.7056 263.9372 0004895  95.9328 264.2450 14.92784200 80015
