{"fetched_at":"2026-07-05T12:51:00.659Z","source":"https://celestrak.org/NORAD/elements/gp.php?NAME=FIREFLY&FORMAT=JSON","constellation":"pixxel","records":[{"OBJECT_NAME":"FIREFLY-1","OBJECT_ID":"2025-009CW","EPOCH":"2026-07-05T04:36:53.726400","CLASSIFICATION_TYPE":"U","MEAN_MOTION":14.92725562,"ECCENTRICITY":0.00022324,"INCLINATION":97.7065,"RA_OF_ASC_NODE":263.9498,"ARG_OF_PERICENTER":276.6303,"MEAN_ANOMALY":83.4662,"EPHEMERIS_TYPE":0,"NORAD_CAT_ID":62701,"ELEMENT_SET_NO":999,"REV_AT_EPOCH":8000,"BSTAR":0.00017605323,"MEAN_MOTION_DOT":0.00001762,"MEAN_MOTION_DDOT":0},{"OBJECT_NAME":"FIREFLY-2","OBJECT_ID":"2025-009CZ","EPOCH":"2026-07-05T04:05:02.951520","CLASSIFICATION_TYPE":"U","MEAN_MOTION":14.92721217,"ECCENTRICITY":0.00072684,"INCLINATION":97.7021,"RA_OF_ASC_NODE":263.7035,"ARG_OF_PERICENTER":34.3772,"MEAN_ANOMALY":325.7916,"EPHEMERIS_TYPE":0,"NORAD_CAT_ID":62704,"ELEMENT_SET_NO":999,"REV_AT_EPOCH":8000,"BSTAR":0.00020838358,"MEAN_MOTION_DOT":0.00002096,"MEAN_MOTION_DDOT":0},{"OBJECT_NAME":"FIREFLY-3","OBJECT_ID":"2025-009DF","EPOCH":"2026-07-05T03:34:08.918112","CLASSIFICATION_TYPE":"U","MEAN_MOTION":14.927842,"ECCENTRICITY":0.00048955,"INCLINATION":97.7056,"RA_OF_ASC_NODE":263.9372,"ARG_OF_PERICENTER":95.9328,"MEAN_ANOMALY":264.245,"EPHEMERIS_TYPE":0,"NORAD_CAT_ID":62710,"ELEMENT_SET_NO":999,"REV_AT_EPOCH":8001,"BSTAR":0.00019350543,"MEAN_MOTION_DOT":0.00001945,"MEAN_MOTION_DDOT":0}]}
